{
    "links": {
        "self": "http://www.neowsapp.com/rest/v1/neo/3796303?api_key=iIulBulltgU6a56xZRHN4H3l9WmuAYTsLGpBGhQ2"
    },
    "id": "3796303",
    "neo_reference_id": "3796303",
    "name": "(2017 YU8)",
    "designation": "2017 YU8",
    "nasa_jpl_url": "http://ssd.jpl.nasa.gov/sbdb.cgi?sstr=3796303",
    "absolute_magnitude_h": 25.677,
    "estimated_diameter": {
        "kilometers": {
            "estimated_diameter_min": 0.019460544,
            "estimated_diameter_max": 0.0435150993
        },
        "meters": {
            "estimated_diameter_min": 19.4605440107,
            "estimated_diameter_max": 43.515099287
        },
        "miles": {
            "estimated_diameter_min": 0.0120922177,
            "estimated_diameter_max": 0.0270390208
        },
        "feet": {
            "estimated_diameter_min": 63.8469312119,
            "estimated_diameter_max": 142.7660783446
        }
    },
    "is_potentially_hazardous_asteroid": false,
    "close_approach_data": [
        {
            "close_approach_date": "2017-12-07",
            "close_approach_date_full": "2017-Dec-07 19:33",
            "epoch_date_close_approach": 1512675180000,
            "relative_velocity": {
                "kilometers_per_second": "7.9505814156",
                "kilometers_per_hour": "28622.0930961127",
                "miles_per_hour": "17784.6555685262"
            },
            "miss_distance": {
                "astronomical": "0.0440090835",
                "lunar": "17.1195334815",
                "kilometers": "6583665.152252145",
                "miles": "4090899.828063801"
            },
            "orbiting_body": "Earth"
        }
    ],
    "orbital_data": {
        "orbit_id": "1",
        "orbit_determination_date": "2018-01-07 06:21:42",
        "first_observation_date": "2017-12-24",
        "last_observation_date": "2017-12-25",
        "data_arc_in_days": 1,
        "observations_used": 6,
        "orbit_uncertainty": "9",
        "minimum_orbit_intersection": ".0256578",
        "jupiter_tisserand_invariant": "5.160",
        "epoch_osculation": "2458112.5",
        "eccentricity": ".3254025706468926",
        "semi_major_axis": "1.226361525339123",
        "inclination": "2.203438489639665",
        "ascending_node_longitude": "37.35986784589528",
        "orbital_period": "496.0508547051695",
        "perihelion_distance": ".8273003324513283",
        "perihelion_argument": "333.3402480972636",
        "aphelion_distance": "1.625422718226918",
        "perihelion_time": "2458045.505084567158",
        "mean_anomaly": "48.62035681837074",
        "mean_motion": ".725732042562386",
        "equinox": "J2000",
        "orbit_class": {
            "orbit_class_type": "APO",
            "orbit_class_description": "Near-Earth asteroid orbits which cross the Earth’s orbit similar to that of 1862 Apollo",
            "orbit_class_range": "a (semi-major axis) > 1.0 AU; q (perihelion) < 1.017 AU"
        }
    },
    "is_sentry_object": false
}